{"server":"http://127.0.0.1:8080/","plugins":{"City":{"path":"City/plugin.config.json","zip":"zips/City.zip","config":{"name":"City","title":"Cities","version":"1.0.2","author":"Yassin Rais","description":"This plugin is a shared cities , that will can be related to country plugin ","image":"https://i.imgur.com/wMIB1kf.png","zip":"zips/City.zip"}},"Country":{"path":"Country/plugin.config.json","zip":"zips/Country.zip","config":{"name":"Country","title":"Countries","version":"1.0.2","author":"Yassin Rais","description":"This plugin is a shared country models to use with others plugins ","image":"https://i.imgur.com/WRn5vhM.png","zip":"zips/Country.zip"}},"Customers":{"path":"Customers/plugin.config.json","zip":"zips/Customers.zip","config":{"name":"Customers","title":"Customers","version":"0.0.1","author":"Yassine Rais","description":"Customers Information","image":"https://i.imgur.com/TqCF5A2.png","group":"Customers","route":"customers","zip":"zips/Customers.zip"}},"Newsletter":{"path":"Newsletter/plugin.config.json","zip":"zips/Newsletter.zip","config":{"author":"Yassine Rais","description":"Manage Newsletters","group":"Newsletter","image":"https://www.archides.at/wp-content/uploads/netclipart.com-newsletters-clipart-956313.png","name":"Newsletter","route":"newsletter","title":"Newsletter","version":"0.1.0","zip":"zips/Newsletter.zip"}}}}